{
  "type": "FeatureCollection",
  "features": [
    {
      "type": "Feature",
      "properties": {
        "route_type": "marathon",
        "role": "course",
        "name": "TCS New York City Marathon (approximate course)",
        "event": "TCS New York City Marathon",
        "official_distance_km": 42.195,
        "official_distance_mi": 26.2,
        "polyline_chord_km": 37.4,
        "boroughs": ["Staten Island", "Brooklyn", "Queens", "Manhattan", "Bronx"],
        "start": "Fort Wadsworth, Staten Island",
        "finish": "Tavern on the Green, Central Park, Manhattan",
        "fidelity": "Approximate polyline of the published 5-borough route (not the surveyed centreline). The 45 waypoints trace the real landmarks (Verrazzano-Narrows Bridge, 4th Ave Brooklyn, Pulaski Bridge, Queensboro Bridge, 1st Ave, Willis Ave Bridge into the Bronx, Madison Ave Bridge, 5th Ave, Central Park drives). Measured as straight chords the polyline is ~37.4 km; the official surveyed course is 42.195 km. The ~5 km (12%) gap is street-grid curvature and small dog-legs a coarse polyline omits — the shape and borough sequence are faithful, the exact length is not.",
        "modeled_after": "Provided for comparison with the Las Vegas Strip Marathon scenario (both officially 26.2 mi / 42.195 km). NYC is a point-to-point 5-borough course; Vegas is a Strip loop."
      },
      "geometry": {
        "type": "LineString",
        "coordinates": [
          [-74.0596, 40.6058],
          [-74.0470, 40.6065],
          [-74.0348, 40.6165],
          [-74.0265, 40.6234],
          [-74.0180, 40.6390],
          [-74.0068, 40.6555],
          [-73.9950, 40.6710],
          [-73.9793, 40.6840],
          [-73.9720, 40.6890],
          [-73.9620, 40.6930],
          [-73.9540, 40.6970],
          [-73.9550, 40.7050],
          [-73.9560, 40.7130],
          [-73.9520, 40.7200],
          [-73.9470, 40.7280],
          [-73.9530, 40.7410],
          [-73.9490, 40.7460],
          [-73.9560, 40.7530],
          [-73.9600, 40.7570],
          [-73.9615, 40.7595],
          [-73.9560, 40.7660],
          [-73.9520, 40.7700],
          [-73.9470, 40.7780],
          [-73.9430, 40.7840],
          [-73.9380, 40.7930],
          [-73.9330, 40.8020],
          [-73.9280, 40.8055],
          [-73.9265, 40.8095],
          [-73.9330, 40.8090],
          [-73.9370, 40.8140],
          [-73.9420, 40.8080],
          [-73.9470, 40.8010],
          [-73.9520, 40.7985],
          [-73.9560, 40.7965],
          [-73.9600, 40.7900],
          [-73.9630, 40.7830],
          [-73.9590, 40.7825],
          [-73.9660, 40.7790],
          [-73.9680, 40.7720],
          [-73.9700, 40.7690],
          [-73.9740, 40.7670],
          [-73.9760, 40.7665],
          [-73.9812, 40.7690],
          [-73.9800, 40.7715],
          [-73.9782, 40.7736]
        ]
      }
    }
  ]
}
