{
  "type": "FeatureCollection",
  "features": [
    {
      "type": "Feature",
      "properties": { "poi_type": "origin_zone", "zone_id": "Z1", "tag": "nyc-z1", "name": "Z1 · Times Square · 2,600", "population": 2600, "vulnerable": 1040, "children": 470, "elderly": 420, "disabled": 150, "radius": 163 },
      "geometry": { "type": "Point", "coordinates": [-73.9855, 40.7585] }
    },
    {
      "type": "Feature",
      "properties": { "poi_type": "origin_zone", "zone_id": "Z2", "tag": "nyc-z2", "name": "Z2 · Rockefeller Center · 2,200", "population": 2200, "vulnerable": 880, "children": 400, "elderly": 350, "disabled": 130, "radius": 138 },
      "geometry": { "type": "Point", "coordinates": [-73.9787, 40.7587] }
    },
    {
      "type": "Feature",
      "properties": { "poi_type": "origin_zone", "zone_id": "Z3", "tag": "nyc-z3", "name": "Z3 · Central Park South · 2,600", "population": 2600, "vulnerable": 1040, "children": 470, "elderly": 420, "disabled": 150, "radius": 163 },
      "geometry": { "type": "Point", "coordinates": [-73.9760, 40.7655] }
    },
    {
      "type": "Feature",
      "properties": { "poi_type": "origin_zone", "zone_id": "Z4", "tag": "nyc-z4", "name": "Z4 · Hell's Kitchen · 2,400", "population": 2400, "vulnerable": 960, "children": 430, "elderly": 390, "disabled": 140, "radius": 150 },
      "geometry": { "type": "Point", "coordinates": [-73.9880, 40.7640] }
    },
    {
      "type": "Feature",
      "properties": { "poi_type": "origin_zone", "zone_id": "Z5", "tag": "nyc-z5", "name": "Z5 · Midtown East · 2,200", "population": 2200, "vulnerable": 880, "children": 400, "elderly": 350, "disabled": 130, "radius": 138 },
      "geometry": { "type": "Point", "coordinates": [-73.9730, 40.7620] }
    },
    {
      "type": "Feature",
      "properties": { "poi_type": "exit", "name": "EXIT WEST · Columbus Circle (59th/Broadway)", "radius": 170 },
      "geometry": { "type": "Point", "coordinates": [-73.9819, 40.7681] }
    },
    {
      "type": "Feature",
      "properties": { "poi_type": "exit", "name": "EXIT EAST · Grand Central / 5th Ave", "radius": 170 },
      "geometry": { "type": "Point", "coordinates": [-73.9720, 40.7600] }
    },
    {
      "type": "Feature",
      "properties": { "poi_type": "assembly_point", "name": "Muster · Bryant Park" },
      "geometry": { "type": "Point", "coordinates": [-73.9832, 40.7536] }
    },
    {
      "type": "Feature",
      "properties": { "poi_type": "shelter", "name": "Shelter · Grand Central Terminal" },
      "geometry": { "type": "Point", "coordinates": [-73.9772, 40.7527] }
    }
  ]
}
