{
  "type": "FeatureCollection",
  "features": [
    {
      "type": "Feature",
      "properties": {
        "route_type": "evacuation",
        "role": "corridor",
        "from": "exit_west",
        "to": "zaporizhzhia_direction",
        "modes": ["foot", "bus"],
        "name": "Mariupol → Zaporizhzhia corridor (representative)"
      },
      "geometry": {
        "type": "LineString",
        "coordinates": [
          [37.531, 47.0975],
          [37.523, 47.102],
          [37.49, 47.123],
          [37.472, 47.132],
          [37.452, 47.144]
        ]
      }
    }
  ]
}
