{
  "type": "FeatureCollection",
  "features": [
    {
      "type": "Feature",
      "properties": { "poi_type": "origin_zone", "zone_id": "Z1", "tag": "venice-z1", "name": "Z1 · San Marco · 2,600", "population": 2600, "vulnerable": 1040, "children": 470, "elderly": 420, "disabled": 150, "radius": 163 },
      "geometry": { "type": "Point", "coordinates": [12.3388, 45.4340] }
    },
    {
      "type": "Feature",
      "properties": { "poi_type": "origin_zone", "zone_id": "Z2", "tag": "venice-z2", "name": "Z2 · Rialto / San Polo · 2,200", "population": 2200, "vulnerable": 880, "children": 400, "elderly": 350, "disabled": 130, "radius": 138 },
      "geometry": { "type": "Point", "coordinates": [12.3358, 45.4380] }
    },
    {
      "type": "Feature",
      "properties": { "poi_type": "origin_zone", "zone_id": "Z3", "tag": "venice-z3", "name": "Z3 · Cannaregio · 2,600", "population": 2600, "vulnerable": 1040, "children": 470, "elderly": 420, "disabled": 150, "radius": 163 },
      "geometry": { "type": "Point", "coordinates": [12.3300, 45.4420] }
    },
    {
      "type": "Feature",
      "properties": { "poi_type": "origin_zone", "zone_id": "Z4", "tag": "venice-z4", "name": "Z4 · Dorsoduro · 2,400", "population": 2400, "vulnerable": 960, "children": 430, "elderly": 390, "disabled": 140, "radius": 150 },
      "geometry": { "type": "Point", "coordinates": [12.3270, 45.4315] }
    },
    {
      "type": "Feature",
      "properties": { "poi_type": "origin_zone", "zone_id": "Z5", "tag": "venice-z5", "name": "Z5 · Castello · 2,200", "population": 2200, "vulnerable": 880, "children": 400, "elderly": 350, "disabled": 130, "radius": 138 },
      "geometry": { "type": "Point", "coordinates": [12.3480, 45.4350] }
    },
    {
      "type": "Feature",
      "properties": { "poi_type": "exit", "name": "EXIT NW · Piazzale Roma (causeway)", "radius": 170 },
      "geometry": { "type": "Point", "coordinates": [12.3185, 45.4380] }
    },
    {
      "type": "Feature",
      "properties": { "poi_type": "exit", "name": "EXIT NW · Santa Lucia Station (rail)", "radius": 170 },
      "geometry": { "type": "Point", "coordinates": [12.3210, 45.4415] }
    },
    {
      "type": "Feature",
      "properties": { "poi_type": "assembly_point", "name": "Muster · Piazzale Roma" },
      "geometry": { "type": "Point", "coordinates": [12.3190, 45.4382] }
    },
    {
      "type": "Feature",
      "properties": { "poi_type": "shelter", "name": "Shelter · Santa Lucia Station" },
      "geometry": { "type": "Point", "coordinates": [12.3212, 45.4413] }
    }
  ]
}
