{
  "type": "FeatureCollection",
  "features": [
    {
      "type": "Feature",
      "properties": { "poi_type": "origin_zone", "zone_id": "Z1", "tag": "barcelona-z1", "name": "Z1 · Barri Gòtic · 2,600", "population": 2600, "vulnerable": 1040, "children": 470, "elderly": 420, "disabled": 150, "radius": 163 },
      "geometry": { "type": "Point", "coordinates": [2.176, 41.3835] }
    },
    {
      "type": "Feature",
      "properties": { "poi_type": "origin_zone", "zone_id": "Z2", "tag": "barcelona-z2", "name": "Z2 · El Born · 2,200", "population": 2200, "vulnerable": 880, "children": 400, "elderly": 350, "disabled": 130, "radius": 138 },
      "geometry": { "type": "Point", "coordinates": [2.182, 41.3855] }
    },
    {
      "type": "Feature",
      "properties": { "poi_type": "origin_zone", "zone_id": "Z3", "tag": "barcelona-z3", "name": "Z3 · El Raval · 2,600", "population": 2600, "vulnerable": 1040, "children": 470, "elderly": 420, "disabled": 150, "radius": 163 },
      "geometry": { "type": "Point", "coordinates": [2.168, 41.381] }
    },
    {
      "type": "Feature",
      "properties": { "poi_type": "origin_zone", "zone_id": "Z4", "tag": "barcelona-z4", "name": "Z4 · Eixample S · 2,400", "population": 2400, "vulnerable": 960, "children": 430, "elderly": 390, "disabled": 140, "radius": 150 },
      "geometry": { "type": "Point", "coordinates": [2.17, 41.388] }
    },
    {
      "type": "Feature",
      "properties": { "poi_type": "origin_zone", "zone_id": "Z5", "tag": "barcelona-z5", "name": "Z5 · Sant Pere · 2,200", "population": 2200, "vulnerable": 880, "children": 400, "elderly": 350, "disabled": 130, "radius": 138 },
      "geometry": { "type": "Point", "coordinates": [2.18, 41.391] }
    },
    {
      "type": "Feature",
      "properties": { "poi_type": "exit", "name": "EXIT NORTH · Plaça Catalunya", "radius": 170 },
      "geometry": { "type": "Point", "coordinates": [2.1685, 41.39] }
    },
    {
      "type": "Feature",
      "properties": { "poi_type": "exit", "name": "EXIT SEA · Port / Barceloneta", "radius": 170 },
      "geometry": { "type": "Point", "coordinates": [2.185, 41.3795] }
    },
    {
      "type": "Feature",
      "properties": { "poi_type": "assembly_point", "name": "Muster · Plaça Reial" },
      "geometry": { "type": "Point", "coordinates": [2.1745, 41.3798] }
    },
    {
      "type": "Feature",
      "properties": { "poi_type": "shelter", "name": "Shelter · Mercat de Santa Caterina" },
      "geometry": { "type": "Point", "coordinates": [2.1782, 41.3868] }
    }
  ]
}
